{
    "links": {
        "self": "http://www.neowsapp.com/rest/v1/neo/54097980?api_key=iIulBulltgU6a56xZRHN4H3l9WmuAYTsLGpBGhQ2"
    },
    "id": "54097980",
    "neo_reference_id": "54097980",
    "name": "(2020 XD1)",
    "designation": "2020 XD1",
    "nasa_jpl_url": "http://ssd.jpl.nasa.gov/sbdb.cgi?sstr=54097980",
    "absolute_magnitude_h": 27.104,
    "estimated_diameter": {
        "kilometers": {
            "estimated_diameter_min": 0.0100868364,
            "estimated_diameter_max": 0.0225548518
        },
        "meters": {
            "estimated_diameter_min": 10.086836391,
            "estimated_diameter_max": 22.5548518482
        },
        "miles": {
            "estimated_diameter_min": 0.0062676676,
            "estimated_diameter_max": 0.0140149308
        },
        "feet": {
            "estimated_diameter_min": 33.093296305,
            "estimated_diameter_max": 73.9988601376
        }
    },
    "is_potentially_hazardous_asteroid": false,
    "close_approach_data": [
        {
            "close_approach_date": "2020-12-02",
            "close_approach_date_full": "2020-Dec-02 11:38",
            "epoch_date_close_approach": 1606909080000,
            "relative_velocity": {
                "kilometers_per_second": "5.0262435439",
                "kilometers_per_hour": "18094.4767580409",
                "miles_per_hour": "11243.2041833505"
            },
            "miss_distance": {
                "astronomical": "0.036084133",
                "lunar": "14.036727737",
                "kilometers": "5398109.43759671",
                "miles": "3354229.666826198"
            },
            "orbiting_body": "Earth"
        }
    ],
    "orbital_data": {
        "orbit_id": "1",
        "orbit_determination_date": "2020-12-07 01:12:11",
        "first_observation_date": "2020-12-06",
        "last_observation_date": "2020-12-07",
        "data_arc_in_days": 1,
        "observations_used": 15,
        "orbit_uncertainty": "8",
        "minimum_orbit_intersection": ".0274241",
        "jupiter_tisserand_invariant": "4.225",
        "epoch_osculation": "2459190.5",
        "eccentricity": ".3781969076447042",
        "semi_major_axis": "1.631841995581581",
        "inclination": "2.364273081811323",
        "ascending_node_longitude": "238.071760498647",
        "orbital_period": "761.4047558907971",
        "perihelion_distance": "1.014684399087864",
        "perihelion_argument": "184.35019059",
        "aphelion_distance": "2.248999592075298",
        "perihelion_time": "2459179.694605140084",
        "mean_anomaly": "5.108901828461479",
        "mean_motion": ".4728102854818946",
        "equinox": "J2000",
        "orbit_class": {
            "orbit_class_type": "APO",
            "orbit_class_description": "Near-Earth asteroid orbits which cross the Earth’s orbit similar to that of 1862 Apollo",
            "orbit_class_range": "a (semi-major axis) > 1.0 AU; q (perihelion) < 1.017 AU"
        }
    },
    "is_sentry_object": false
}